[{"OBJECT_NAME":"STARLINK-4509","OBJECT_ID":"2022-097S","EPOCH":"2026-03-09T12:22:22.283616","MEAN_MOTION":15.0884141,"ECCENTRICITY":0.00012829,"INCLINATION":53.2165,"RA_OF_ASC_NODE":114.8358,"ARG_OF_PERICENTER":92.2882,"MEAN_ANOMALY":267.8257,"EPHEMERIS_TYPE":0,"CLASSIFICATION_TYPE":"U","NORAD_CAT_ID":53404,"ELEMENT_SET_NO":999,"REV_AT_EPOCH":19862,"BSTAR":2.1424163e-5,"MEAN_MOTION_DOT":5.3e-7,"MEAN_MOTION_DDOT":0},{"OBJECT_NAME":"COSMOS 886 DEB","OBJECT_ID":"1976-126BC","EPOCH":"2026-03-09T23:00:40.110048","MEAN_MOTION":13.88993613,"ECCENTRICITY":0.05615405,"INCLINATION":65.7639,"RA_OF_ASC_NODE":244.6412,"ARG_OF_PERICENTER":232.9023,"MEAN_ANOMALY":121.9468,"EPHEMERIS_TYPE":0,"CLASSIFICATION_TYPE":"U","NORAD_CAT_ID":9962,"ELEMENT_SET_NO":999,"REV_AT_EPOCH":38225,"BSTAR":0.00180306,"MEAN_MOTION_DOT":7.881e-5,"MEAN_MOTION_DDOT":0}]
